NORAD_CAT_ID,OBJECT_NAME,OBJECT_TYPE,EPOCH,MEAN_MOTION,ECCENTRICITY,INCLINATION,RA_OF_ASC_NODE,ARG_OF_PERICENTER,MEAN_ANOMALY,BSTAR,MEAN_MOTION_DOT,MEAN_MOTION_DDOT,TLE_LINE0,TLE_LINE1,TLE_LINE2,SEMIMAJOR_AXIS,PERIOD,APOGEE,PERIGEE,DECAYED
56480.0,STARLINK-6214,PAYLOAD,2023-08-30 22:00:00,15.45493623,0.0003377,69.9988,290.9202,270.3471,234.2118,-0.020214,-0.00895967,0.0,0 STARLINK-6214,1 56480U 23064AJ  23242.91667824 -.00895967  00000-0 -20214-1 0  9990,2 56480  69.9988 290.9202 0003377 270.3471 234.2118 15.45493623  6012,6808.065,93.174,432.229,427.631,0.0
56480.0,STARLINK-6214,PAYLOAD,2023-08-31 04:00:01,15.45025892,0.0003659,69.999,290.2428,269.8797,185.0489,-0.020803,-0.00906588,0.0,0 STARLINK-6214,1 56480U 23064AJ  23243.16668981 -.00906588  00000-0 -20803-1 0  9999,2 56480  69.9990 290.2428 0003659 269.8797 185.0489 15.45025892 18000,6809.439,93.202,433.796,428.812,0.0
56480.0,STARLINK-6214,PAYLOAD,2023-08-31 20:00:01,15.43727243,0.0003321,69.9983,288.4386,270.4963,289.7557,-0.022739,-0.00944592,0.0,0 STARLINK-6214,1 56480U 23064AJ  23243.83334491 -.00944592  00000-0 -22739-1 0  9996,2 56480  69.9983 288.4386 0003321 270.4963 289.7557 15.43727243 18109,6813.257,93.281,437.385,432.86,0.0
56480.0,STARLINK-6214,PAYLOAD,2023-08-31 22:00:01,15.43530738,0.0003457,69.9983,288.2134,268.0019,35.2764,-0.021376,-0.00886877,0.0,0 STARLINK-6214,1 56480U 23064AJ  23243.91668981 -.00886877  00000-0 -21376-1 0  9996,2 56480  69.9983 288.2134 0003457 268.0019  35.2764 15.43530738  6060,6813.836,93.293,438.056,433.345,0.0
56480.0,STARLINK-6214,PAYLOAD,2023-09-01 14:00:01,15.42236652,0.0003429,69.9981,286.4132,275.1792,129.8877,-0.022401,-0.00889484,0.0,0 STARLINK-6214,1 56480U 23064AJ  23244.58334491 -.00889484  00000-0 -22401-1 0  9993,2 56480  69.9981 286.4132 0003429 275.1792 129.8877 15.42236652 18225,6817.647,93.371,441.85,437.174,0.0
56480.0,STARLINK-6214,PAYLOAD,2023-09-01 22:00:00,15.41566333,0.0003345,69.9981,285.5145,269.5189,185.3101,-0.022469,-0.00873644,0.0,0 STARLINK-6214,1 56480U 23064AJ  23244.91667824 -.00873644  00000-0 -22469-1 0  9994,2 56480  69.9981 285.5145 0003345 269.5189 185.3101 15.41566333  5913,6819.623,93.411,443.769,439.207,0.0
56480.0,STARLINK-6214,PAYLOAD,2023-09-02 04:00:00,15.41125866,0.000342,69.9982,284.8412,268.4496,133.1592,-0.024431,-0.00931057,0.0,0 STARLINK-6214,1 56480U 23064AJ  23245.16667824 -.00931057  00000-0 -24431-1 0  9996,2 56480  69.9982 284.8412 0003420 268.4496 133.1592 15.41125866 18311,6820.922,93.438,445.12,440.455,0.0
56480.0,STARLINK-6214,PAYLOAD,2023-09-02 14:00:01,15.40284031,0.0003234,69.9979,283.7198,273.7424,278.2416,-0.024094,-0.00895794,0.0,0 STARLINK-6214,1 56480U 23064AJ  23245.58334491 -.00895794  00000-0 -24094-1 0  9995,2 56480  69.9979 283.7198 0003234 273.7424 278.2416 15.40284031  6018,6823.407,93.489,447.479,443.066,0.0
56480.0,STARLINK-6214,PAYLOAD,2023-09-02 22:00:00,15.39606127,0.000327,69.9981,282.8239,267.6354,331.7661,-0.023756,-0.00866079,0.0,0 STARLINK-6214,1 56480U 23064AJ  23245.91667824 -.00866079  00000-0 -23756-1 0  9999,2 56480  69.9981 282.8239 0003270 267.6354 331.7661 15.39606127  6021,6825.41,93.53,449.507,445.043,0.0
56480.0,STARLINK-6214,PAYLOAD,2023-09-03 04:00:00,15.39172006,0.0003256,69.9982,282.1527,267.5583,276.8619,-0.026236,-0.00936649,0.0,0 STARLINK-6214,1 56480U 23064AJ  23246.16667824 -.00936649  00000-0 -26236-1 0  9994,2 56480  69.9982 282.1527 0003256 267.5583 276.8619 15.39172006 18469,6826.693,93.557,450.781,446.336,0.0
56480.0,STARLINK-6214,PAYLOAD,2023-09-03 14:00:01,15.3833421,0.0003484,69.9978,281.0347,273.7465,58.1128,-0.026045,-0.00907204,0.0,0 STARLINK-6214,1 56480U 23064AJ  23246.58334491 -.00907204  00000-0 -26045-1 0  9994,2 56480  69.9978 281.0347 0003484 273.7465  58.1128 15.38334210  5977,6829.172,93.608,453.416,448.658,0.0
56480.0,STARLINK-6214,PAYLOAD,2023-09-04 14:00:01,15.36373082,0.0003446,69.998,278.3572,276.2448,188.4535,-0.027568,-0.00901434,0.0,0 STARLINK-6214,1 56480U 23064AJ  23247.58334491 -.00901434  00000-0 -27568-1 0  9995,2 56480  69.9980 278.3572 0003446 276.2448 188.4535 15.36373082 18685,6834.982,93.727,459.202,454.492,0.0
56480.0,STARLINK-6214,PAYLOAD,2023-09-05 04:00:00,15.35262711,0.0003453,69.9985,276.7992,269.7781,179.1432,-0.030089,-0.00945358,0.0,0 STARLINK-6214,1 56480U 23064AJ  23248.16667824 -.00945358  00000-0 -30089-1 0  9994,2 56480  69.9985 276.7992 0003453 269.7781 179.1432 15.35262711 18771,6838.277,93.795,462.504,457.781,0.0
56480.0,STARLINK-6214,PAYLOAD,2023-09-05 14:00:01,15.34417809,0.0003384,69.9982,275.6879,272.7097,317.7853,-0.029489,-0.00905253,0.0,0 STARLINK-6214,1 56480U 23064AJ  23248.58334491 -.00905253  00000-0 -29489-1 0  9993,2 56480  69.9982 275.6879 0003384 272.7097 317.7853 15.34417809  5971,6840.787,93.847,464.967,460.337,0.0
56480.0,STARLINK-6214,PAYLOAD,2023-09-06 04:00:00,15.3330145,0.0003308,69.9987,274.1345,266.4982,304.1155,-0.031826,-0.00939797,0.0,0 STARLINK-6214,1 56480U 23064AJ  23249.16667824 -.00939797  00000-0 -31826-1 0  9995,2 56480  69.9987 274.1345 0003308 266.4982 304.1155 15.33301450 18924,6844.107,93.915,468.236,463.708,0.0
56480.0,STARLINK-6214,PAYLOAD,2023-09-06 14:00:01,15.32467873,0.0003507,69.9983,273.0265,273.1023,76.1465,-0.031732,-0.00914909,0.0,0 STARLINK-6214,1 56480U 23064AJ  23249.58334491 -.00914909  00000-0 -31732-1 0  9996,2 56480  69.9983 273.0265 0003507 273.1023  76.1465 15.32467873  5973,6846.589,93.966,470.855,466.053,0.0
56480.0,STARLINK-6214,PAYLOAD,2023-09-06 22:00:00,15.31774765,0.000343,69.9983,272.1412,267.0999,120.1827,-0.030101,-0.00854135,0.0,0 STARLINK-6214,1 56480U 23064AJ  23249.91667824 -.00854135  00000-0 -30101-1 0  9995,2 56480  69.9983 272.1412 0003430 267.0999 120.1827 15.31774765  6025,6848.654,94.009,472.868,468.17,0.0
56480.0,STARLINK-6214,PAYLOAD,2023-09-07 14:00:01,15.3051731,0.0003316,69.9982,270.3731,275.4299,185.5329,-0.034125,-0.00924689,0.0,0 STARLINK-6214,1 56480U 23064AJ  23250.58334491 -.00924689  00000-0 -34125-1 0  9993,2 56480  69.9982 270.3731 0003316 275.4299 185.5329 15.30517310 19146,6852.405,94.086,476.542,471.998,0.0
56480.0,STARLINK-6214,PAYLOAD,2023-09-07 22:00:00,15.29818222,0.0003246,69.9983,269.4907,268.2311,228.4199,-0.031956,-0.00853179,0.0,0 STARLINK-6214,1 56480U 23064AJ  23250.91667824 -.00853179  00000-0 -31956-1 0  9993,2 56480  69.9983 269.4907 0003246 268.2311 228.4199 15.29818222  5879,6854.492,94.129,478.582,474.132,0.0
56480.0,STARLINK-6214,PAYLOAD,2023-09-08 14:00:01,15.2856483,0.0003224,69.9979,267.7279,273.4059,292.2312,-0.036642,-0.00945671,0.0,0 STARLINK-6214,1 56480U 23064AJ  23251.58334491 -.00945671  00000-0 -36642-1 0  9994,2 56480  69.9979 267.7279 0003224 273.4059 292.2312 15.28564830  5979,6858.239,94.206,482.315,477.893,0.0
56480.0,STARLINK-6214,PAYLOAD,2023-09-08 22:00:00,15.2786191,0.0003259,69.9981,266.8478,266.3782,332.6005,-0.033849,-0.00851075,0.0,0 STARLINK-6214,1 56480U 23064AJ  23251.91667824 -.00851075  00000-0 -33849-1 0  9990,2 56480  69.9981 266.8478 0003259 266.3782 332.6005 15.27861910 19347,6860.342,94.249,484.443,479.971,0.0
56480.0,STARLINK-6214,PAYLOAD,2023-09-09 14:00:01,15.26609904,0.0003324,69.9976,265.0902,272.8356,30.4365,-0.039125,-0.0095085,0.0,0 STARLINK-6214,1 56480U 23064AJ  23252.58334491 -.00950850  00000-0 -39125-1 0  9999,2 56480  69.9976 265.0902 0003324 272.8356  30.4365 15.26609904 19441,6864.092,94.327,488.239,483.676,0.0
56480.0,STARLINK-6214,PAYLOAD,2023-09-10 14:00:01,15.24651753,0.0003355,69.9975,262.4604,275.1062,118.7607,-0.041421,-0.00949027,0.0,0 STARLINK-6214,1 56480U 23064AJ  23253.58334491 -.00949027  00000-0 -41421-1 0  9996,2 56480  69.9975 262.4604 0003355 275.1062 118.7607 15.24651753 19608,6869.968,94.448,494.138,489.528,0.0
56480.0,STARLINK-6214,PAYLOAD,2023-09-11 14:00:01,15.2269364,0.0003218,69.9973,259.8382,275.624,201.7976,-0.043854,-0.0094782,0.0,0 STARLINK-6214,1 56480U 23064AJ  23254.58334491 -.00947820  00000-0 -43854-1 0  9998,2 56480  69.9973 259.8382 0003218 275.6240 201.7976 15.22693640 19757,6875.857,94.569,499.934,495.509,0.0
56480.0,STARLINK-6214,PAYLOAD,2023-09-12 14:00:01,15.20738957,0.0003151,69.9972,257.224,273.2186,280.7792,-0.046735,-0.00953067,0.0,0 STARLINK-6214,1 56480U 23064AJ  23255.58335648 -.00953067  00000-0 -46735-1 0  9995,2 56480  69.9972 257.2240 0003151 273.2186 280.7792 15.20738957 19909,6881.747,94.691,505.781,501.444,0.0
56480.0,STARLINK-6214,PAYLOAD,2023-09-12 22:00:00,15.20047011,0.0003146,69.9973,256.3544,266.5026,311.3802,-0.043724,-0.00879191,0.0,0 STARLINK-6214,1 56480U 23064AJ  23255.91667824 -.00879191  00000-0 -43724-1 0  9996,2 56480  69.9973 256.3544 0003146 266.5026 311.3802 15.20047011  6036,6883.836,94.734,507.866,503.535,0.0
56480.0,STARLINK-6214,PAYLOAD,2023-09-13 06:00:02,15.19417022,0.0003226,69.9975,255.4856,270.0506,331.052,-0.047052,-0.00925337,0.0,0 STARLINK-6214,1 56480U 23064AJ  23256.25002315 -.00925337  00000-0 -47052-1 0  9994,2 56480  69.9975 255.4856 0003226 270.0506 331.0520 15.19417022 20006,6885.738,94.773,509.825,505.382,0.0
56480.0,STARLINK-6214,PAYLOAD,2023-09-13 14:00:01,15.18784449,0.0003229,69.9971,254.6177,271.3159,352.0908,-0.049776,-0.00958422,0.0,0 STARLINK-6214,1 56480U 23064AJ  23256.58334491 -.00958422  00000-0 -49776-1 0  9999,2 56480  69.9971 254.6177 0003229 271.3159 352.0908 15.18784449  6006,6887.65,94.813,511.739,507.291,0.0
56480.0,STARLINK-6214,PAYLOAD,2023-09-13 22:00:00,15.180901,0.0003237,69.9974,253.7507,265.3684,19.6399,-0.046229,-0.00878297,0.0,0 STARLINK-6214,1 56480U 23064AJ  23256.91667824 -.00878297  00000-0 -46229-1 0  9996,2 56480  69.9974 253.7507 0003237 265.3684  19.6399 15.18090100  6016,6889.75,94.856,513.845,509.385,0.0
56480.0,STARLINK-6214,PAYLOAD,2023-09-14 14:00:01,15.16827746,0.0003303,69.9972,252.0192,271.2633,54.6391,-0.052773,-0.00960233,0.0,0 STARLINK-6214,1 56480U 23064AJ  23257.58335648 -.00960233  00000-0 -52773-1 0  9999,2 56480  69.9972 252.0192 0003303 271.2633  54.6391 15.16827746 20200,6893.572,94.935,517.714,513.16,0.0
